[{"OBJECT_NAME":"STARLINK-5190","OBJECT_ID":"2022-136AT","EPOCH":"2026-03-09T12:41:00.063744","MEAN_MOTION":15.67479539,"ECCENTRICITY":0.00024286,"INCLINATION":53.1784,"RA_OF_ASC_NODE":175.0319,"ARG_OF_PERICENTER":333.791,"MEAN_ANOMALY":26.2984,"EPHEMERIS_TYPE":0,"CLASSIFICATION_TYPE":"U","NORAD_CAT_ID":54092,"ELEMENT_SET_NO":999,"REV_AT_EPOCH":18920,"BSTAR":0.0005696033,"MEAN_MOTION_DOT":0.00062878,"MEAN_MOTION_DDOT":0},{"OBJECT_NAME":"BREEZE-M DEB [TANK]","OBJECT_ID":"2008-063B","EPOCH":"2026-03-08T12:40:56.904960","MEAN_MOTION":5.04973456,"ECCENTRICITY":0.53308166,"INCLINATION":49.3956,"RA_OF_ASC_NODE":153.5194,"ARG_OF_PERICENTER":209.035,"MEAN_ANOMALY":106.358,"EPHEMERIS_TYPE":0,"CLASSIFICATION_TYPE":"U","NORAD_CAT_ID":33454,"ELEMENT_SET_NO":999,"REV_AT_EPOCH":30790,"BSTAR":0.0019284856,"MEAN_MOTION_DOT":7.355e-5,"MEAN_MOTION_DDOT":0}]
